2025-292G               
1 66999U 25292G   26003.28130861  .00011898  00000+0  83551-3 0  9990
2 66999  97.6555  80.6504 0015254 202.0023 158.0550 15.05194976  3630
2025-292H               
1 67000U 25292H   26002.94852582  .00013472  00000+0  94388-3 0  9997
2 67000  97.6570  80.3252 0015125 203.2338 156.8206 15.05252110  3456
2025-292J               
1 67001U 25292J   26003.29067158  .00012757  00000+0  90935-3 0  9993
2 67001  97.6536  80.6346 0015601 192.9185 167.1644 15.04612896  3630
ZK-1A R/B               
1 67002U 25292K   26003.10973683  .00215139  14953-4  92026-3 0  9992
2 67002  97.7182  82.7040 0194943 286.8130  71.1824 15.61973896  3720
STARLINK-35660          
1 67003U 25293A   26003.25002315 -.00229484  00000+0 -38197-2 0  9996
2 67003  69.9995 262.5775 0003333 275.5498 229.3064 15.52636444  3617
STARLINK-35913          
1 67004U 25293B   26003.25002315 -.00189601  00000+0 -31424-2 0  9999
2 67004  69.9995 262.5752 0003233 275.7486 231.0317 15.52614078  3611
STARLINK-36148          
1 67005U 25293C   26003.25002315 -.00231149  00000+0 -38487-2 0  9991
2 67005  69.9997 262.5722 0003365 275.3688 233.3219 15.52632825  3613
STARLINK-36156          
1 67006U 25293D   26003.25002315 -.00251293  00000+0 -41937-2 0  9998
2 67006  69.9995 262.5673 0003143 277.7385 234.7902 15.52641581  3614
STARLINK-36123          
1 67007U 25293E   26003.25002315  .00104027  00000+0  16703-2 0  9992
2 67007  69.9994 262.5710 0002810 276.3247 234.2797 15.52542843  3616
STARLINK-36163          
1 67008U 25293F   26003.25002315 -.00291389  00000+0 -48837-2 0  9996
2 67008  69.9994 262.5652 0002961 275.8694 238.5689 15.52664924  3611
STARLINK-36118          
1 67009U 25293G   26003.25002315 -.00324108  00000+0 -54506-2 0  9993
2 67009  69.9995 262.5633 0003276 271.6076 244.7464 15.52682949  3550
STARLINK-36189          
1 67010U 25293H   26003.25002315 -.00281114  00000+0 -47061-2 0  9992
2 67010  69.9993 262.5586 0003077 274.3780 245.8114 15.52660021  3616
