CCSDS_OMM_VERS = 2.0
CREATION_DATE  = 
ORIGINATOR     = 

OBJECT_NAME    = 2025-292G
OBJECT_ID      = 2025-292G
CENTER_NAME    = EARTH
REF_FRAME      = TEME
TIME_SYSTEM    = UTC
MEAN_ELEMENT_THEORY = SGP/SGP4

EPOCH          = 2026-01-03T06:45:05.063904
MEAN_MOTION    = 15.05194976
ECCENTRICITY   = .00152545
INCLINATION    = 97.6555
RA_OF_ASC_NODE = 80.6504
ARG_OF_PERICENTER = 202.0023
MEAN_ANOMALY   = 158.0550

EPHEMERIS_TYPE = 0
CLASSIFICATION_TYPE = U
NORAD_CAT_ID   = 66999
ELEMENT_SET_NO = 999
REV_AT_EPOCH   = 363
BSTAR          = .83550593E-3
MEAN_MOTION_DOT = .11898E-3
MEAN_MOTION_DDOT = 0

CCSDS_OMM_VERS = 2.0
CREATION_DATE  = 
ORIGINATOR     = 

OBJECT_NAME    = 2025-292H
OBJECT_ID      = 2025-292H
CENTER_NAME    = EARTH
REF_FRAME      = TEME
TIME_SYSTEM    = UTC
MEAN_ELEMENT_THEORY = SGP/SGP4

EPOCH          = 2026-01-02T22:45:52.630848
MEAN_MOTION    = 15.05252110
ECCENTRICITY   = .00151252
INCLINATION    = 97.6570
RA_OF_ASC_NODE = 80.3252
ARG_OF_PERICENTER = 203.2338
MEAN_ANOMALY   = 156.8206

EPHEMERIS_TYPE = 0
CLASSIFICATION_TYPE = U
NORAD_CAT_ID   = 67000
ELEMENT_SET_NO = 999
REV_AT_EPOCH   = 345
BSTAR          = .94388116E-3
MEAN_MOTION_DOT = .13472E-3
MEAN_MOTION_DDOT = 0

CCSDS_OMM_VERS = 2.0
CREATION_DATE  = 
ORIGINATOR     = 

OBJECT_NAME    = 2025-292J
OBJECT_ID      = 2025-292J
CENTER_NAME    = EARTH
REF_FRAME      = TEME
TIME_SYSTEM    = UTC
MEAN_ELEMENT_THEORY = SGP/SGP4

EPOCH          = 2026-01-03T06:58:34.024512
MEAN_MOTION    = 15.04612896
ECCENTRICITY   = .00156017
INCLINATION    = 97.6536
RA_OF_ASC_NODE = 80.6346
ARG_OF_PERICENTER = 192.9185
MEAN_ANOMALY   = 167.1644

EPHEMERIS_TYPE = 0
CLASSIFICATION_TYPE = U
NORAD_CAT_ID   = 67001
ELEMENT_SET_NO = 999
REV_AT_EPOCH   = 363
BSTAR          = .90935056E-3
MEAN_MOTION_DOT = .12757E-3
MEAN_MOTION_DDOT = 0

CCSDS_OMM_VERS = 2.0
CREATION_DATE  = 
ORIGINATOR     = 

OBJECT_NAME    = ZK-1A R/B
OBJECT_ID      = 2025-292K
CENTER_NAME    = EARTH
REF_FRAME      = TEME
TIME_SYSTEM    = UTC
MEAN_ELEMENT_THEORY = SGP/SGP4

EPOCH          = 2026-01-03T02:38:01.262112
MEAN_MOTION    = 15.61973896
ECCENTRICITY   = .01949433
INCLINATION    = 97.7182
RA_OF_ASC_NODE = 82.7040
ARG_OF_PERICENTER = 286.8130
MEAN_ANOMALY   = 71.1824

EPHEMERIS_TYPE = 0
CLASSIFICATION_TYPE = U
NORAD_CAT_ID   = 67002
ELEMENT_SET_NO = 999
REV_AT_EPOCH   = 372
BSTAR          = .92026105E-3
MEAN_MOTION_DOT = .215139E-2
MEAN_MOTION_DDOT = .14953345E-4

CCSDS_OMM_VERS = 2.0
CREATION_DATE  = 
ORIGINATOR     = 

OBJECT_NAME    = STARLINK-35660
OBJECT_ID      = 2025-293A
CENTER_NAME    = EARTH
REF_FRAME      = TEME
TIME_SYSTEM    = UTC
MEAN_ELEMENT_THEORY = SGP/SGP4

EPOCH          = 2026-01-03T06:00:02.000160
MEAN_MOTION    = 15.52636444
ECCENTRICITY   = .00033339
INCLINATION    = 69.9995
RA_OF_ASC_NODE = 262.5775
ARG_OF_PERICENTER = 275.5498
MEAN_ANOMALY   = 229.3064

EPHEMERIS_TYPE = 0
CLASSIFICATION_TYPE = U
NORAD_CAT_ID   = 67003
ELEMENT_SET_NO = 999
REV_AT_EPOCH   = 361
BSTAR          = -.38197096E-2
MEAN_MOTION_DOT = -.229484E-2
MEAN_MOTION_DDOT = 0

CCSDS_OMM_VERS = 2.0
CREATION_DATE  = 
ORIGINATOR     = 

OBJECT_NAME    = STARLINK-35913
OBJECT_ID      = 2025-293B
CENTER_NAME    = EARTH
REF_FRAME      = TEME
TIME_SYSTEM    = UTC
MEAN_ELEMENT_THEORY = SGP/SGP4

EPOCH          = 2026-01-03T06:00:02.000160
MEAN_MOTION    = 15.52614078
ECCENTRICITY   = .00032336
INCLINATION    = 69.9995
RA_OF_ASC_NODE = 262.5752
ARG_OF_PERICENTER = 275.7486
MEAN_ANOMALY   = 231.0317

EPHEMERIS_TYPE = 0
CLASSIFICATION_TYPE = U
NORAD_CAT_ID   = 67004
ELEMENT_SET_NO = 999
REV_AT_EPOCH   = 361
BSTAR          = -.31423542E-2
MEAN_MOTION_DOT = -.189601E-2
MEAN_MOTION_DDOT = 0

CCSDS_OMM_VERS = 2.0
CREATION_DATE  = 
ORIGINATOR     = 

OBJECT_NAME    = STARLINK-36148
OBJECT_ID      = 2025-293C
CENTER_NAME    = EARTH
REF_FRAME      = TEME
TIME_SYSTEM    = UTC
MEAN_ELEMENT_THEORY = SGP/SGP4

EPOCH          = 2026-01-03T06:00:02.000160
MEAN_MOTION    = 15.52632825
ECCENTRICITY   = .00033659
INCLINATION    = 69.9997
RA_OF_ASC_NODE = 262.5722
ARG_OF_PERICENTER = 275.3688
MEAN_ANOMALY   = 233.3219

EPHEMERIS_TYPE = 0
CLASSIFICATION_TYPE = U
NORAD_CAT_ID   = 67005
ELEMENT_SET_NO = 999
REV_AT_EPOCH   = 361
BSTAR          = -.38487092E-2
MEAN_MOTION_DOT = -.231149E-2
MEAN_MOTION_DDOT = 0

CCSDS_OMM_VERS = 2.0
CREATION_DATE  = 
ORIGINATOR     = 

OBJECT_NAME    = STARLINK-36156
OBJECT_ID      = 2025-293D
CENTER_NAME    = EARTH
REF_FRAME      = TEME
TIME_SYSTEM    = UTC
MEAN_ELEMENT_THEORY = SGP/SGP4

EPOCH          = 2026-01-03T06:00:02.000160
MEAN_MOTION    = 15.52641581
ECCENTRICITY   = .00031436
INCLINATION    = 69.9995
RA_OF_ASC_NODE = 262.5673
ARG_OF_PERICENTER = 277.7385
MEAN_ANOMALY   = 234.7902

EPHEMERIS_TYPE = 0
CLASSIFICATION_TYPE = U
NORAD_CAT_ID   = 67006
ELEMENT_SET_NO = 999
REV_AT_EPOCH   = 361
BSTAR          = -.41937315E-2
MEAN_MOTION_DOT = -.251293E-2
MEAN_MOTION_DDOT = 0

CCSDS_OMM_VERS = 2.0
CREATION_DATE  = 
ORIGINATOR     = 

OBJECT_NAME    = STARLINK-36123
OBJECT_ID      = 2025-293E
CENTER_NAME    = EARTH
REF_FRAME      = TEME
TIME_SYSTEM    = UTC
MEAN_ELEMENT_THEORY = SGP/SGP4

EPOCH          = 2026-01-03T06:00:02.000160
MEAN_MOTION    = 15.52542843
ECCENTRICITY   = .00028104
INCLINATION    = 69.9994
RA_OF_ASC_NODE = 262.5710
ARG_OF_PERICENTER = 276.3247
MEAN_ANOMALY   = 234.2797

EPHEMERIS_TYPE = 0
CLASSIFICATION_TYPE = U
NORAD_CAT_ID   = 67007
ELEMENT_SET_NO = 999
REV_AT_EPOCH   = 361
BSTAR          = .1670256E-2
MEAN_MOTION_DOT = .104027E-2
MEAN_MOTION_DDOT = 0

CCSDS_OMM_VERS = 2.0
CREATION_DATE  = 
ORIGINATOR     = 

OBJECT_NAME    = STARLINK-36163
OBJECT_ID      = 2025-293F
CENTER_NAME    = EARTH
REF_FRAME      = TEME
TIME_SYSTEM    = UTC
MEAN_ELEMENT_THEORY = SGP/SGP4

EPOCH          = 2026-01-03T06:00:02.000160
MEAN_MOTION    = 15.52664924
ECCENTRICITY   = .00029617
INCLINATION    = 69.9994
RA_OF_ASC_NODE = 262.5652
ARG_OF_PERICENTER = 275.8694
MEAN_ANOMALY   = 238.5689

EPHEMERIS_TYPE = 0
CLASSIFICATION_TYPE = U
NORAD_CAT_ID   = 67008
ELEMENT_SET_NO = 999
REV_AT_EPOCH   = 361
BSTAR          = -.48836959E-2
MEAN_MOTION_DOT = -.291389E-2
MEAN_MOTION_DDOT = 0

CCSDS_OMM_VERS = 2.0
CREATION_DATE  = 
ORIGINATOR     = 

OBJECT_NAME    = STARLINK-36118
OBJECT_ID      = 2025-293G
CENTER_NAME    = EARTH
REF_FRAME      = TEME
TIME_SYSTEM    = UTC
MEAN_ELEMENT_THEORY = SGP/SGP4

EPOCH          = 2026-01-03T06:00:02.000160
MEAN_MOTION    = 15.52682949
ECCENTRICITY   = .00032763
INCLINATION    = 69.9995
RA_OF_ASC_NODE = 262.5633
ARG_OF_PERICENTER = 271.6076
MEAN_ANOMALY   = 244.7464

EPHEMERIS_TYPE = 0
CLASSIFICATION_TYPE = U
NORAD_CAT_ID   = 67009
ELEMENT_SET_NO = 999
REV_AT_EPOCH   = 355
BSTAR          = -.54505533E-2
MEAN_MOTION_DOT = -.324108E-2
MEAN_MOTION_DDOT = 0

CCSDS_OMM_VERS = 2.0
CREATION_DATE  = 
ORIGINATOR     = 

OBJECT_NAME    = STARLINK-36189
OBJECT_ID      = 2025-293H
CENTER_NAME    = EARTH
REF_FRAME      = TEME
TIME_SYSTEM    = UTC
MEAN_ELEMENT_THEORY = SGP/SGP4

EPOCH          = 2026-01-03T06:00:02.000160
MEAN_MOTION    = 15.52660021
ECCENTRICITY   = .00030772
INCLINATION    = 69.9993
RA_OF_ASC_NODE = 262.5586
ARG_OF_PERICENTER = 274.3780
MEAN_ANOMALY   = 245.8114

EPHEMERIS_TYPE = 0
CLASSIFICATION_TYPE = U
NORAD_CAT_ID   = 67010
ELEMENT_SET_NO = 999
REV_AT_EPOCH   = 361
BSTAR          = -.47060833E-2
MEAN_MOTION_DOT = -.281114E-2
MEAN_MOTION_DDOT = 0

